{
  "type": "FeatureCollection",
  "features": [
    {
      "type": "Feature",
      "properties": {
        "norad_id": 64751,
        "name": "PROGRESS-MS 31",
        "group": "stations",
        "lat": -44.98673289205177,
        "lon": 79.97466197329778,
        "alt_km": 420.7728907701512,
        "timestamp": "2025-12-14T18:52:54.265928+00:00",
        "meta_object_name": "PROGRESS-MS 31",
        "meta_object_id": "2025-146A",
        "meta_epoch": "2025-12-13T21:29:24.134208",
        "meta_mean_motion": 15.49578,
        "meta_eccentricity": 0.00032568,
        "meta_inclination": 51.6304,
        "meta_ra_of_asc_node": 136.7564,
        "meta_arg_of_pericenter": 246.2023,
        "meta_mean_anomaly": 113.8624,
        "meta_ephemeris_type": 0,
        "meta_classification_type": "U",
        "meta_norad_cat_id": 64751,
        "meta_element_set_no": 999,
        "meta_rev_at_epoch": 675,
        "meta_bstar": 0.00022109287,
        "meta_mean_motion_dot": 0.00011998,
        "meta_mean_motion_ddot": 0,
        "tle_line1": "1 64751U 25146A   25347.89541822  .00011998  00000+0  22109-3 0  9995",
        "tle_line2": "2 64751  51.6304 136.7564 0003256 246.2023 113.8624 15.49578000  6753"
      },
      "geometry": {
        "type": "Point",
        "coordinates": [
          79.97466197329778,
          -44.98673289205177
        ]
      }
    },
    {
      "type": "Feature",
      "properties": {
        "norad_id": 64786,
        "name": "TIANZHOU-9",
        "group": "stations",
        "lat": 32.20105410050727,
        "lon": 138.78868483556812,
        "alt_km": 383.42581823019646,
        "timestamp": "2025-12-14T18:52:54.265944+00:00",
        "meta_object_name": "TIANZHOU-9",
        "meta_object_id": "2025-149A",
        "meta_epoch": "2025-12-13T19:17:07.421568",
        "meta_mean_motion": 15.59230309,
        "meta_eccentricity": 0.00080892,
        "meta_inclination": 41.4685,
        "meta_ra_of_asc_node": 10.2494,
        "meta_arg_of_pericenter": 39.7422,
        "meta_mean_anomaly": 320.4007,
        "meta_ephemeris_type": 0,
        "meta_classification_type": "U",
        "meta_norad_cat_id": 64786,
        "meta_element_set_no": 999,
        "meta_rev_at_epoch": 25530,
        "meta_bstar": 0.00031564739,
        "meta_mean_motion_dot": 0.00025274,
        "meta_mean_motion_ddot": 0,
        "tle_line1": "1 64786U 25149A   25347.80355812  .00025274  00000+0  31565-3 0  9997",
        "tle_line2": "2 64786  41.4685  10.2494 0008089  39.7422 320.4007 15.59230309255301"
      },
      "geometry": {
        "type": "Point",
        "coordinates": [
          138.78868483556812,
          32.20105410050727
        ]
      }
    },
    {
      "type": "Feature",
      "properties": {
        "norad_id": 65077,
        "name": "CREW DRAGON 11",
        "group": "stations",
        "lat": -44.986732058144995,
        "lon": 79.97466413478391,
        "alt_km": 420.77289078869126,
        "timestamp": "2025-12-14T18:52:54.265955+00:00",
        "meta_object_name": "CREW DRAGON 11",
        "meta_object_id": "2025-166A",
        "meta_epoch": "2025-12-13T21:29:24.134208",
        "meta_mean_motion": 15.49578,
        "meta_eccentricity": 0.00032568,
        "meta_inclination": 51.6304,
        "meta_ra_of_asc_node": 136.7564,
        "meta_arg_of_pericenter": 246.2023,
        "meta_mean_anomaly": 113.8624,
        "meta_ephemeris_type": 0,
        "meta_classification_type": "U",
        "meta_norad_cat_id": 65077,
        "meta_element_set_no": 999,
        "meta_rev_at_epoch": 214,
        "meta_bstar": 0.00022109287,
        "meta_mean_motion_dot": 0.00011998,
        "meta_mean_motion_ddot": 0,
        "tle_line1": "1 65077U 25166A   25347.89541822  .00011998  00000+0  22109-3 0  9999",
        "tle_line2": "2 65077  51.6304 136.7564 0003256 246.2023 113.8624 15.49578000  2144"
      },
      "geometry": {
        "type": "Point",
        "coordinates": [
          79.97466413478391,
          -44.986732058144995
        ]
      }
    },
    {
      "type": "Feature",
      "properties": {
        "norad_id": 65304,
        "name": "DRAGON CRS-33",
        "group": "stations",
        "lat": -44.986731718405146,
        "lon": 79.97466501538946,
        "alt_km": 420.77289079624643,
        "timestamp": "2025-12-14T18:52:54.265966+00:00",
        "meta_object_name": "DRAGON CRS-33",
        "meta_object_id": "2025-186A",
        "meta_epoch": "2025-12-13T21:29:24.134208",
        "meta_mean_motion": 15.49578,
        "meta_eccentricity": 0.00032568,
        "meta_inclination": 51.6304,
        "meta_ra_of_asc_node": 136.7564,
        "meta_arg_of_pericenter": 246.2023,
        "meta_mean_anomaly": 113.8624,
        "meta_ephemeris_type": 0,
        "meta_classification_type": "U",
        "meta_norad_cat_id": 65304,
        "meta_element_set_no": 999,
        "meta_rev_at_epoch": 11,
        "meta_bstar": 0.00022109287,
        "meta_mean_motion_dot": 0.00011998,
        "meta_mean_motion_ddot": 0,
        "tle_line1": "1 65304U 25186A   25347.89541822  .00011998  00000+0  22109-3 0  9994",
        "tle_line2": "2 65304  51.6304 136.7564 0003256 246.2023 113.8624 15.49578000   112"
      },
      "geometry": {
        "type": "Point",
        "coordinates": [
          79.97466501538946,
          -44.986731718405146
        ]
      }
    },
    {
      "type": "Feature",
      "properties": {
        "norad_id": 65586,
        "name": "PROGRESS-MS 32",
        "group": "stations",
        "lat": -44.98673134777973,
        "lon": 79.97466597605043,
        "alt_km": 420.77289080448554,
        "timestamp": "2025-12-14T18:52:54.265978+00:00",
        "meta_object_name": "PROGRESS-MS 32",
        "meta_object_id": "2025-204A",
        "meta_epoch": "2025-12-13T21:29:24.134208",
        "meta_mean_motion": 15.49578,
        "meta_eccentricity": 0.00032568,
        "meta_inclination": 51.6304,
        "meta_ra_of_asc_node": 136.7564,
        "meta_arg_of_pericenter": 246.2023,
        "meta_mean_anomaly": 113.8624,
        "meta_ephemeris_type": 0,
        "meta_classification_type": "U",
        "meta_norad_cat_id": 65586,
        "meta_element_set_no": 999,
        "meta_rev_at_epoch": 27,
        "meta_bstar": 0.00022109287,
        "meta_mean_motion_dot": 0.00011998,
        "meta_mean_motion_ddot": 0,
        "tle_line1": "1 65586U 25204A   25347.89541822  .00011998  00000+0  22109-3 0  9997",
        "tle_line2": "2 65586  51.6304 136.7564 0003256 246.2023 113.8624 15.49578000   271"
      },
      "geometry": {
        "type": "Point",
        "coordinates": [
          79.97466597605043,
          -44.98673134777973
        ]
      }
    },
    {
      "type": "Feature",
      "properties": {
        "norad_id": 65616,
        "name": "CYGNUS NG-23",
        "group": "stations",
        "lat": -44.98673100804025,
        "lon": 79.97466685665492,
        "alt_km": 420.7728908120389,
        "timestamp": "2025-12-14T18:52:54.265989+00:00",
        "meta_object_name": "CYGNUS NG-23",
        "meta_object_id": "2025-208A",
        "meta_epoch": "2025-12-13T21:29:24.134208",
        "meta_mean_motion": 15.49578,
        "meta_eccentricity": 0.00032568,
        "meta_inclination": 51.6304,
        "meta_ra_of_asc_node": 136.7564,
        "meta_arg_of_pericenter": 246.2023,
        "meta_mean_anomaly": 113.8624,
        "meta_ephemeris_type": 0,
        "meta_classification_type": "U",
        "meta_norad_cat_id": 65616,
        "meta_element_set_no": 999,
        "meta_rev_at_epoch": 22,
        "meta_bstar": 0.00022109287,
        "meta_mean_motion_dot": 0.00011998,
        "meta_mean_motion_ddot": 0,
        "tle_line1": "1 65616U 25208A   25347.89541822  .00011998  00000+0  22109-3 0  9995",
        "tle_line2": "2 65616  51.6304 136.7564 0003256 246.2023 113.8624 15.49578000   220"
      },
      "geometry": {
        "type": "Point",
        "coordinates": [
          79.97466685665492,
          -44.98673100804025
        ]
      }
    },
    {
      "type": "Feature",
      "properties": {
        "norad_id": 65729,
        "name": "DRAGONFLY",
        "group": "stations",
        "lat": 50.84087646253005,
        "lon": -158.04666289855973,
        "alt_km": 348.22856326819874,
        "timestamp": "2025-12-14T18:52:54.266000+00:00",
        "meta_object_name": "DRAGONFLY",
        "meta_object_id": "1998-067XH",
        "meta_epoch": "2025-12-13T16:36:27.743328",
        "meta_mean_motion": 15.72310549,
        "meta_eccentricity": 0.00068171,
        "meta_inclination": 51.6241,
        "meta_ra_of_asc_node": 130.8872,
        "meta_arg_of_pericenter": 284.278,
        "meta_mean_anomaly": 75.7461,
        "meta_ephemeris_type": 0,
        "meta_classification_type": "U",
        "meta_norad_cat_id": 65729,
        "meta_element_set_no": 999,
        "meta_rev_at_epoch": 1331,
        "meta_bstar": 0.0013020604,
        "meta_mean_motion_dot": 0.00179632,
        "meta_mean_motion_ddot": 0,
        "tle_line1": "1 65729U 98067XH  25347.69198777  .00179632  00000+0  13021-2 0  9990",
        "tle_line2": "2 65729  51.6241 130.8872 0006817 284.2780  75.7461 15.72310549 13317"
      },
      "geometry": {
        "type": "Point",
        "coordinates": [
          -158.04666289855973,
          50.84087646253005
        ]
      }
    }
  ]
}